0 ARIANE 1 DEB
1 25822U 84023D   13282.38227369 -.00000060  00000-0  00000+0 0  8953
2 25822 008.0612 070.4858 6732926 168.2436 223.2731 02.53726413136907
0 ARIANE 1 DEB
1 25822U 84023D   13283.44790751 -.00000060  00000-0  00000+0 0  8962
2 25822 008.0664 070.0675 6733372 169.0684 116.6243 02.53726823136938
0 ARIANE 1 DEB
1 25822U 84023D   13285.67655243 -.00000088  00000-0  00000+0 0  8987
2 25822 008.0753 069.1971 6733837 170.7859 352.2773 02.53723788136993
0 ARIANE 1 DEB
1 25822U 84023D   13287.08917875 -.00000118  00000-0  00000+0 0  8991
2 25822 008.0812 068.6468 6734329 171.8752 202.5932 02.53729832137020
0 ARIANE 1 DEB
1 25822U 84023D   13288.36893322 -.00000145  00000-0  00000+0 0  9006
2 25822 008.0870 068.1459 6734771 172.8639 291.5380 02.53727710137067
0 ARIANE 1 DEB
1 25822U 84023D   13289.47499186 -.00000161  00000-0  00000+0 0  9018
2 25822 008.0922 067.7137 6735129 173.7185 221.8245 02.53728341137086
0 ARIANE 1 DEB
1 25822U 84023D   13290.63423557 -.00000102  00000-0  10000-3 0  9039
2 25822 008.0628 067.4264 6731884 174.4374 200.6924 02.53726604137101
0 ARIANE 1 DEB
1 25822U 84023D   13290.66428244 -.00000167  00000-0  00000+0 0  9025
2 25822 008.0978 067.2493 6735465 174.6367 228.1410 02.53728896137126
0 ARIANE 1 DEB
1 25822U 84023D   13291.76307242 -.00000162  00000-0  00000+0 0  9037
2 25822 008.1024 066.8212 6735637 175.4831 151.7923 02.53728903137140
0 ARIANE 1 DEB
1 25822U 84023D   13292.77615454 -.00000150  00000-0  00000+0 0  9044
2 25822 008.1065 066.4266 6735844 176.2647 357.1434 02.53722604137178
0 ARIANE 1 DEB
1 25822U 84023D   13293.07737628 -.00000146  00000-0  00000+0 0  9052
2 25822 008.1084 066.3101 6736097 176.4980 272.2907 02.53729872137186
0 ARIANE 1 DEB
1 25822U 84023D   13294.13716035 -.00000129  00000-0  00000+0 0  9061
2 25822 008.1128 065.8987 6736412 177.3137 160.3167 02.53729328137200
0 ARIANE 1 DEB
1 25822U 84023D   13295.45532267 -.00000110  00000-0  00000+0 0  9071
2 25822 008.1212 065.3835 6736941 178.3370 284.3402 02.53730834137245
